SatCatId,ObjectName,LaunchYear,OrbitalPeriod,LaunchMass,StatusCode,Inclination,Status,UcsData,OrbitClassEstimated,LaunchSiteCountry,Owner,UseType,Purpose,LaunchVehicleClass,TLE1,TLE2,MeanMotion,Eccentricity,OrbitClass
55313,STARLINK-5313,2023,96.11,-1.0,+,70.0,Active,0,LEO,USA,USA,Unknown,Unknown,Falcon,1 55313U 23010AW  23266.78274550  .00000383  00000+0  39901-4 0  9999,2 55313  69.9991 108.4303 0002985 266.5964  93.4854 14.98330024 38955,14.98330024,0.0002985,LEO
55314,STARLINK-5305,2023,96.12,-1.0,+,70.0,Active,0,LEO,USA,USA,Unknown,Unknown,Falcon,1 55314U 23010AX  23266.77535537 -.00075125  00000+0 -64657-2 0  9996,2 55314  69.9981 108.4037 0003765 284.6317  75.4424 14.97665705 38958,14.97665705,0.0003765,LEO
55315,STARLINK-4623,2023,96.11,-1.0,+,70.0,Active,0,LEO,USA,USA,Unknown,Unknown,Falcon,1 55315U 23010AY  23266.79966645  .00003822  00000+0  32810-3 0  9997,2 55315  70.0004 128.3726 0003091 260.2258  99.8552 14.98308787 38474,14.98308787,0.0003091,LEO
55316,STARLINK-5257,2023,96.11,-1.0,+,70.0,Active,0,LEO,USA,USA,Unknown,Unknown,Falcon,1 55316U 23010AZ  23266.82446243 -.00000434  00000+0 -28605-4 0  9995,2 55316  69.9989 108.1904 0003079 268.6216  91.4590 14.98328029 38976,14.98328029,0.0003079,LEO
55317,STARLINK-5265,2023,96.11,-1.0,+,70.0,Active,0,LEO,USA,USA,Unknown,Unknown,Falcon,1 55317U 23010BA  23266.91668981  .00013653  00000+0  11500-2 0  9990,2 55317  70.0011 108.0937 0003355 271.0345 113.8576 14.98323313 38984,14.98323313,0.0003355,LEO
55318,STARLINK-5180,2023,96.11,-1.0,+,70.0,Active,0,LEO,USA,USA,Unknown,Unknown,Falcon,1 55318U 23010BB  23266.57411707  .00000858  00000+0  79714-4 0  9991,2 55318  69.9991 108.9053 0003091 266.5253  93.5553 14.98331638 40117,14.98331638,0.0003091,LEO
55319,STARLINK-5196,2023,96.11,-1.0,+,70.0,Active,0,LEO,USA,USA,Unknown,Unknown,Falcon,1 55319U 23010BC  23266.77022572  .00000917  00000+0  84613-4 0  9992,2 55319  69.9990 108.3871 0003096 271.5695  88.5109 14.98333085 38958,14.98333085,0.0003096,LEO
55324,HAWK-6B,2023,95.48,-1.0,+,40.52,Active,0,LEO,USA,USA,Unknown,Unknown,Electron,1 55324U 23011A   23266.55569314  .00005497  00000+0  36005-3 0  9994,2 55324  40.5196 344.5957 0003715  98.0462 262.0764 15.08130006 36446,15.08130006,0.0003715,LEO
55326,HAWK-6C,2023,95.48,-1.0,+,40.49,Active,0,LEO,USA,USA,Unknown,Unknown,Electron,1 55326U 23011C   23266.55540777  .00005448  00000+0  35693-3 0  9996,2 55326  40.4883 343.8814 0003697  86.6448 273.4779 15.08125238 36454,15.08125238,0.0003697,LEO
55327,HAWK-6A,2023,95.48,-1.0,+,40.5,Active,0,LEO,USA,USA,Unknown,Unknown,Electron,1 55327U 23011D   23266.55527053  .00005581  00000+0  36539-3 0  9997,2 55327  40.5042 344.2597 0003675  81.1898 278.9322 15.08129052 36453,15.08129052,0.0003675,LEO
55331,STARLINK-5492,2023,95.84,-1.0,+,43.0,Active,0,LEO,USA,USA,Unknown,Unknown,Falcon,1 55331U 23013A   23266.76636695 -.00000964  00000+0 -56336-4 0  9990,2 55331  43.0030 139.8078 0001347 273.5429  86.5259 15.02530264 37061,15.02530264,0.0001347,LEO
55332,STARLINK-5491,2023,95.84,-1.0,+,43.0,Active,0,LEO,USA,USA,Unknown,Unknown,Falcon,1 55332U 23013B   23266.74663920 -.00001200  00000+0 -73805-4 0  9994,2 55332  43.0023 126.6399 0001264 273.0293  87.0405 15.02532776 37212,15.02532776,0.0001264,LEO
55333,STARLINK-5493,2023,95.84,-1.0,+,43.0,Active,0,LEO,USA,USA,Unknown,Unknown,Falcon,1 55333U 23013C   23266.76080792  .00002388  00000+0  19179-3 0  9996,2 55333  43.0019 139.7656 0001211 272.0866  87.9838 15.02538520 37061,15.0253852,0.0001211,LEO
55334,STARLINK-5652,2023,95.89,-1.0,+,43.0,Active,0,LEO,USA,USA,Unknown,Unknown,Falcon,1 55334U 23013D   23266.71676500 -.00001229  00000+0 -77680-4 0  9997,2 55334  43.0027 136.8224 0001026 274.1362  85.9363 15.01722674 37096,15.01722674,0.0001026,LEO
55335,STARLINK-5660,2023,95.84,-1.0,+,43.0,Active,0,LEO,USA,USA,Unknown,Unknown,Falcon,1 55335U 23013E   23266.75748204 -.00000565  00000+0 -26799-4 0  9990,2 55335  43.0023 139.7432 0000878 263.1051  96.9691 15.02537025 37061,15.02537025,8.78e-05,LEO
55336,STARLINK-5655,2023,95.89,-1.0,+,43.0,Active,0,LEO,USA,USA,Unknown,Unknown,Falcon,1 55336U 23013F   23266.71943154  .00006522  00000+0  50809-3 0  9993,2 55336  43.0030 126.3632 0001271 276.6376  83.4321 15.01727226 37212,15.01727226,0.0001271,LEO
55337,STARLINK-5667,2023,95.84,-1.0,+,43.0,Active,0,LEO,USA,USA,Unknown,Unknown,Falcon,1 55337U 23013G   23266.73774807  .00001763  00000+0  14552-3 0  9990,2 55337  43.0019 126.5358 0001293 276.8459  83.2236 15.02541937 37212,15.02541937,0.0001293,LEO
55338,STARLINK-5658,2023,95.84,-1.0,+,43.0,Active,0,LEO,USA,USA,Unknown,Unknown,Falcon,1 55338U 23013H   23266.75526307 -.00000901  00000+0 -51637-4 0  9994,2 55338  43.0032 139.7236 0001009 267.7827  92.2900 15.02536464 37062,15.02536464,0.0001009,LEO
55339,STARLINK-5671,2023,95.84,-1.0,+,43.0,Active,0,LEO,USA,USA,Unknown,Unknown,Falcon,1 55339U 23013J   23266.74971206 -.00000020  00000+0  13580-4 0  9992,2 55339  43.0028 139.6841 0001116 263.5742  96.4973 15.02535143 37067,15.02535143,0.0001116,LEO
55340,STARLINK-5675,2023,95.84,-1.0,+,43.0,Active,0,LEO,USA,USA,Unknown,Unknown,Falcon,1 55340U 23013K   23266.68101057  .00004225  00000+0  32758-3 0  9993,2 55340  43.0002 140.0265 0001344 249.0640 111.0058 15.02545499 37058,15.02545499,0.0001344,LEO
55341,STARLINK-5670,2023,95.84,-1.0,+,43.0,Active,0,LEO,USA,USA,Unknown,Unknown,Falcon,1 55341U 23013L   23266.75192747  .00000960  00000+0  86120-4 0  9993,2 55341  43.0013 139.7005 0001060 268.4994  91.5727 15.02540816 37064,15.02540816,0.000106,LEO
55342,STARLINK-5657,2023,95.84,-1.0,+,43.0,Active,0,LEO,USA,USA,Unknown,Unknown,Falcon,1 55342U 23013M   23266.74637823  .00001376  00000+0  11693-3 0  9996,2 55342  43.0011 139.6601 0001556 256.5546 103.5123 15.02541346 37068,15.02541346,0.0001556,LEO
55343,STARLINK-5661,2023,95.84,-1.0,+,43.0,Active,0,LEO,USA,USA,Unknown,Unknown,Falcon,1 55343U 23013N   23266.14252586  .00003144  00000+0  24774-3 0  9999,2 55343  43.0010 142.8691 0000523 262.7410  97.3373 15.02533694 36541,15.02533694,5.23e-05,LEO
55344,STARLINK-5662,2023,95.84,-1.0,+,43.0,Active,0,LEO,USA,USA,Unknown,Unknown,Falcon,1 55344U 23013P   23266.74305290 -.00000206  00000+0 -20387-6 0  9994,2 55344  43.0021 139.6343 0000811 258.5475 101.5276 15.02534819 37064,15.02534819,8.11e-05,LEO
55345,STARLINK-5653,2023,95.84,-1.0,+,43.0,Active,0,LEO,USA,USA,Unknown,Unknown,Falcon,1 55345U 23013Q   23266.74329941  .00000922  00000+0  83273-4 0  9998,2 55345  43.0011 126.6031 0001168 260.8411  99.2300 15.02546494 37216,15.02546494,0.0001168,LEO
55346,STARLINK-5631,2023,95.84,-1.0,+,43.0,Active,0,LEO,USA,USA,Unknown,Unknown,Falcon,1 55346U 23013R   23266.13919442  .00002786  00000+0  22119-3 0  9994,2 55346  43.0022 142.8432 0000946 275.0130  85.0604 15.02537373 36544,15.02537373,9.46e-05,LEO
55347,STARLINK-5663,2023,95.84,-1.0,+,43.0,Active,0,LEO,USA,USA,Unknown,Unknown,Falcon,1 55347U 23013S   23266.72639814  .00005487  00000+0  42090-3 0  9993,2 55347  43.0025 139.5075 0001292 263.0652  97.0043 15.02540492 37069,15.02540492,0.0001292,LEO
55348,STARLINK-5609,2023,95.84,-1.0,+,43.0,Active,0,LEO,USA,USA,Unknown,Unknown,Falcon,1 55348U 23013T   23266.13696928  .00001539  00000+0  12895-3 0  9992,2 55348  43.0023 142.8259 0001238 241.9776 118.0941 15.02546562 36548,15.02546562,0.0001238,LEO
55349,STARLINK-5666,2023,95.84,-1.0,+,43.0,Active,0,LEO,USA,USA,Unknown,Unknown,Falcon,1 55349U 23013U   23266.13364834  .00008842  00000+0  66841-3 0  9995,2 55349  43.0028 142.8012 0001070 276.4778  83.5943 15.02555534 36547,15.02555534,0.000107,LEO
55350,STARLINK-5668,2023,95.84,-1.0,+,43.0,Active,0,LEO,USA,USA,Unknown,Unknown,Falcon,1 55350U 23013V   23266.13031805  .00006730  00000+0  51253-3 0  9991,2 55350  43.0025 142.7749 0001263 253.8014 106.2690 15.02556209 36540,15.02556209,0.0001263,LEO
55351,STARLINK-5659,2023,95.84,-1.0,+,43.0,Active,0,LEO,USA,USA,Unknown,Unknown,Falcon,1 55351U 23013W   23266.71751861  .00001289  00000+0  11050-3 0  9992,2 55351  43.0029 139.4409 0001198 264.6250  95.4456 15.02535089 37060,15.02535089,0.0001198,LEO
55352,STARLINK-5547,2023,95.84,-1.0,+,43.0,Active,0,LEO,USA,USA,Unknown,Unknown,Falcon,1 55352U 23013X   23266.72307817 -.00001376  00000+0 -86816-4 0  9994,2 55352  43.0033 139.4816 0000918 264.3293  95.7444 15.02531643 37063,15.02531643,9.18e-05,LEO
55353,STARLINK-5608,2023,95.84,-1.0,+,43.0,Active,0,LEO,USA,USA,Unknown,Unknown,Falcon,1 55353U 23013Y   23266.70309688 -.00000590  00000+0 -28642-4 0  9991,2 55353  43.0023 139.3315 0001089 264.4913  95.5805 15.02534230 37060,15.0253423,0.0001089,LEO
55354,STARLINK-5649,2023,95.84,-1.0,+,43.0,Active,0,LEO,USA,USA,Unknown,Unknown,Falcon,1 55354U 23013Z   23266.72085871 -.00001060  00000+0 -63415-4 0  9999,2 55354  43.0032 139.4630 0001294 278.5181  81.5515 15.02531148 37061,15.02531148,0.0001294,LEO
55355,STARLINK-5647,2023,95.84,-1.0,+,43.0,Active,0,LEO,USA,USA,Unknown,Unknown,Falcon,1 55355U 23013AA  23266.71418847 -.00001424  00000+0 -90325-4 0  9996,2 55355  43.0025 139.3948 0001126 265.5494  94.5220 15.02538120 37066,15.0253812,0.0001126,LEO
55357,STARLINK-5651,2023,95.84,-1.0,+,43.0,Active,0,LEO,USA,USA,Unknown,Unknown,Falcon,1 55357U 23013AC  23266.71196944  .00001114  00000+0  97491-4 0  9994,2 55357  43.0032 139.3974 0001006 261.4243  98.6485 15.02542406 37069,15.02542406,0.0001006,LEO
55358,STARLINK-5622,2023,95.84,-1.0,+,43.0,Active,0,LEO,USA,USA,Unknown,Unknown,Falcon,1 55358U 23013AD  23266.71529987 -.00000740  00000+0 -39711-4 0  9999,2 55358  43.0025 139.4227 0001158 265.5195  94.5515 15.02539298 37067,15.02539298,0.0001158,LEO
55359,STARLINK-5641,2023,95.84,-1.0,+,43.0,Active,0,LEO,USA,USA,Unknown,Unknown,Falcon,1 55359U 23013AE  23266.70864574 -.00000082  00000+0  90101-5 0  9992,2 55359  43.0026 139.3722 0000908 263.2514  96.8225 15.02538780 37068,15.0253878,9.08e-05,LEO
